FUNCUBE-3 (EO-79)       
1 40025U 14033R   17345.81670293  .00000348  00000-0  43340-4 0  9991
2 40025  97.9083 256.5610 0013965  81.8586 278.4214 14.88590782188911
